{"type": "FeatureCollection", "features": [ {"type": "Feature", "properties": {"norad_id": 30358, "name": "FENGYUN 1C DEB", "group": "fengyun-1c-debris", "lat": 63.73132036993972, "lon": 27.357326698633546, "alt_km": 773.1493364125026, "timestamp": "2025-12-26T22:28:06.060144+00:00", "meta": {"OBJECT_NAME": "FENGYUN 1C DEB", "OBJECT_ID": "1999-025ABV", "EPOCH": "2025-12-26T11:55:09.825600", "MEAN_MOTION": 14.20764201, "ECCENTRICITY": 0.0082475, "INCLINATION": 98.5547, "RA_OF_ASC_NODE": 189.1749, "ARG_OF_PERICENTER": 159.5872, "MEAN_ANOMALY": 229.0781, "EPHEMERIS_TYPE": 0, "CLASSIFICATION_TYPE": "U", "NORAD_CAT_ID": 30358, "ELEMENT_SET_NO": 999, "REV_AT_EPOCH": 97113, "BSTAR": 0.0015639059, "MEAN_MOTION_DOT": 3.452e-05, "MEAN_MOTION_DDOT": 0}, "tle": {"line1": "1 30358U 99025ABV 25360.49664150  .00003452  00000+0  15639-2 0  9994", "line2": "2 30358  98.5547 189.1749 0082475 159.5872 229.0781 14.20764201971138"}}, "geometry": {"type": "Point", "coordinates": [27.357326698633546, 63.73132036993972]}}, {"type": "Feature", "properties": {"norad_id": 30359, "name": "FENGYUN 1C DEB", "group": "fengyun-1c-debris", "lat": -36.837780151839716, "lon": 1.3979634338565254, "alt_km": 918.5695598420843, "timestamp": "2025-12-26T22:28:06.060156+00:00", "meta": {"OBJECT_NAME": "FENGYUN 1C DEB", "OBJECT_ID": "1999-025ABW", "EPOCH": "2025-12-26T11:04:44.653152", "MEAN_MOTION": 13.94100709, "ECCENTRICITY": 0.01455292, "INCLINATION": 101.627, "RA_OF_ASC_NODE": 189.6748, "ARG_OF_PERICENTER": 308.6412, "MEAN_ANOMALY": 50.1788, "EPHEMERIS_TYPE": 0, "CLASSIFICATION_TYPE": "U", "NORAD_CAT_ID": 30359, "ELEMENT_SET_NO": 999, "REV_AT_EPOCH": 95260, "BSTAR": 0.0029945332, "MEAN_MOTION_DOT": 4.269e-05, "MEAN_MOTION_DDOT": 0}, "tle": {"line1": "1 30359U 99025ABW 25360.46162793  .00004269  00000+0  29945-2 0  9990", "line2": "2 30359 101.6270 189.6748 0145529 308.6412  50.1788 13.94100709952607"}}, "geometry": {"type": "Point", "coordinates": [1.3979634338565254, -36.837780151839716]}}, {"type": "Feature", "properties": {"norad_id": 30360, "name": "FENGYUN 1C DEB", "group": "fengyun-1c-debris", "lat": 80.25267037622052, "lon": 6.649464945050325, "alt_km": 775.0766862558412, "timestamp": "2025-12-26T22:28:06.060166+00:00", "meta": {"OBJECT_NAME": "FENGYUN 1C DEB", "OBJECT_ID": "1999-025ABX", "EPOCH": "2025-12-25T04:07:04.531008", "MEAN_MOTION": 14.26589304, "ECCENTRICITY": 0.0030737, "INCLINATION": 98.7642, "RA_OF_ASC_NODE": 68.784, "ARG_OF_PERICENTER": 111.94, "MEAN_ANOMALY": 276.511, "EPHEMERIS_TYPE": 0, "CLASSIFICATION_TYPE": "U", "NORAD_CAT_ID": 30360, "ELEMENT_SET_NO": 999, "REV_AT_EPOCH": 97602, "BSTAR": 0.001556, "MEAN_MOTION_DOT": 3.731e-05, "MEAN_MOTION_DDOT": 0}, "tle": {"line1": "1 30360U 99025ABX 25359.17158022  .00003731  00000+0  15560-2 0  9999", "line2": "2 30360  98.7642  68.7840 0030737 111.9400 276.5110 14.26589304976027"}}, "geometry": {"type": "Point", "coordinates": [6.649464945050325, 80.25267037622052]}}, {"type": "Feature", "properties": {"norad_id": 30361, "name": "FENGYUN 1C DEB", "group": "fengyun-1c-debris", "lat": 51.98968327733434, "lon": -132.33934297089874, "alt_km": 836.8177413899457, "timestamp": "2025-12-26T22:28:06.060180+00:00", "meta": {"OBJECT_NAME": "FENGYUN 1C DEB", "OBJECT_ID": "1999-025ABY", "EPOCH": "2025-12-26T01:39:34.661952", "MEAN_MOTION": 14.25405805, "ECCENTRICITY": 0.00647497, "INCLINATION": 98.5687, "RA_OF_ASC_NODE": 35.691, "ARG_OF_PERICENTER": 351.4125, "MEAN_ANOMALY": 8.5942, "EPHEMERIS_TYPE": 0, "CLASSIFICATION_TYPE": "U", "NORAD_CAT_ID": 30361, "ELEMENT_SET_NO": 999, "REV_AT_EPOCH": 97806, "BSTAR": 0.00079869848, "MEAN_MOTION_DOT": 1.883e-05, "MEAN_MOTION_DDOT": 0}, "tle": {"line1": "1 30361U 99025ABY 25360.06915118  .00001883  00000+0  79870-3 0  9998", "line2": "2 30361  98.5687  35.6910 0064749 351.4125   8.5942 14.25405805978065"}}, "geometry": {"type": "Point", "coordinates": [-132.33934297089874, 51.98968327733434]}}, {"type": "Feature", "properties": {"norad_id": 30362, "name": "FENGYUN 1C DEB", "group": "fengyun-1c-debris", "lat": 16.560335705041837, "lon": 106.5858865184239, "alt_km": 906.4826712673876, "timestamp": "2025-12-26T22:28:06.060193+00:00", "meta": {"OBJECT_NAME": "FENGYUN 1C DEB", "OBJECT_ID": "1999-025ABZ", "EPOCH": "2025-12-26T06:23:04.231680", "MEAN_MOTION": 14.11946407, "ECCENTRICITY": 0.00946845, "INCLINATION": 99.0498, "RA_OF_ASC_NODE": 283.1934, "ARG_OF_PERICENTER": 306.4167, "MEAN_ANOMALY": 52.83, "EPHEMERIS_TYPE": 0, "CLASSIFICATION_TYPE": "U", "NORAD_CAT_ID": 30362, "ELEMENT_SET_NO": 999, "REV_AT_EPOCH": 96359, "BSTAR": 0.0024084207, "MEAN_MOTION_DOT": 4.55e-05, "MEAN_MOTION_DDOT": 0}, "tle": {"line1": "1 30362U 99025ABZ 25360.26602120  .00004550  00000+0  24084-2 0  9997", "line2": "2 30362  99.0498 283.1934 0094684 306.4167  52.8300 14.11946407963590"}}, "geometry": {"type": "Point", "coordinates": [106.5858865184239, 16.560335705041837]}}, {"type": "Feature", "properties": {"norad_id": 30363, "name": "FENGYUN 1C DEB", "group": "fengyun-1c-debris", "lat": -46.11730935594215, "lon": 81.80623238962046, "alt_km": 801.8964316760666, "timestamp": "2025-12-26T22:28:06.060204+00:00", "meta": {"OBJECT_NAME": "FENGYUN 1C DEB", "OBJECT_ID": "1999-025ACA", "EPOCH": "2025-12-26T04:02:39.283872", "MEAN_MOTION": 14.1694874, "ECCENTRICITY": 0.00785873, "INCLINATION": 99.03, "RA_OF_ASC_NODE": 71.5096, "ARG_OF_PERICENTER": 0.1401, "MEAN_ANOMALY": 359.9782, "EPHEMERIS_TYPE": 0, "CLASSIFICATION_TYPE": "U", "NORAD_CAT_ID": 30363, "ELEMENT_SET_NO": 999, "REV_AT_EPOCH": 97014, "BSTAR": 0.001372767, "MEAN_MOTION_DOT": 2.795e-05, "MEAN_MOTION_DDOT": 0}, "tle": {"line1": "1 30363U 99025ACA 25360.16851023  .00002795  00000+0  13728-2 0  9997", "line2": "2 30363  99.0300  71.5096 0078587   0.1401 359.9782 14.16948740970145"}}, "geometry": {"type": "Point", "coordinates": [81.80623238962046, -46.11730935594215]}}, {"type": "Feature", "properties": {"norad_id": 30364, "name": "FENGYUN 1C DEB", "group": "fengyun-1c-debris", "lat": 81.59327631633175, "lon": 171.6361435114248, "alt_km": 1063.0799825108006, "timestamp": "2025-12-26T22:28:06.060214+00:00", "meta": {"OBJECT_NAME": "FENGYUN 1C DEB", "OBJECT_ID": "1999-025ACB", "EPOCH": "2025-12-25T17:21:29.143872", "MEAN_MOTION": 14.17375884, "ECCENTRICITY": 0.03302942, "INCLINATION": 98.1382, "RA_OF_ASC_NODE": 275.003, "ARG_OF_PERICENTER": 282.5055, "MEAN_ANOMALY": 103.5826, "EPHEMERIS_TYPE": 0, "CLASSIFICATION_TYPE": "U", "NORAD_CAT_ID": 30364, "ELEMENT_SET_NO": 999, "REV_AT_EPOCH": 95825, "BSTAR": 0.0030520471, "MEAN_MOTION_DOT": 0.00010553, "MEAN_MOTION_DDOT": 0}, "tle": {"line1": "1 30364U 99025ACB 25359.72325398  .00010553  00000+0  30520-2 0  9999", "line2": "2 30364  98.1382 275.0030 0330294 282.5055 103.5826 14.17375884958256"}}, "geometry": {"type": "Point", "coordinates": [171.6361435114248, 81.59327631633175]}}, {"type": "Feature", "properties": {"norad_id": 30365, "name": "FENGYUN 1C DEB", "group": "fengyun-1c-debris", "lat": 24.84943296996232, "lon": -9.091898412937917, "alt_km": 741.0992915511733, "timestamp": "2025-12-26T22:28:06.060224+00:00", "meta": {"OBJECT_NAME": "FENGYUN 1C DEB", "OBJECT_ID": "1999-025ACC", "EPOCH": "2025-12-26T11:12:50.305824", "MEAN_MOTION": 14.19244204, "ECCENTRICITY": 0.01680346, "INCLINATION": 98.6198, "RA_OF_ASC_NODE": 354.4799, "ARG_OF_PERICENTER": 72.0186, "MEAN_ANOMALY": 80.0432, "EPHEMERIS_TYPE": 0, "CLASSIFICATION_TYPE": "U", "NORAD_CAT_ID": 30365, "ELEMENT_SET_NO": 999, "REV_AT_EPOCH": 97807, "BSTAR": 0.00024323217, "MEAN_MOTION_DOT": 5.45e-06, "MEAN_MOTION_DDOT": 0}, "tle": {"line1": "1 30365U 99025ACC 25360.46724891  .00000545  00000+0  24323-3 0  9999", "line2": "2 30365  98.6198 354.4799 0168034  72.0186  80.0432 14.19244204978076"}}, "geometry": {"type": "Point", "coordinates": [-9.091898412937917, 24.84943296996232]}}, {"type": "Feature", "properties": {"norad_id": 30366, "name": "FENGYUN 1C DEB", "group": "fengyun-1c-debris", "lat": 56.34135807959223, "lon": 112.51144690437236, "alt_km": 748.5526707850659, "timestamp": "2025-12-26T22:28:06.060235+00:00", "meta": {"OBJECT_NAME": "FENGYUN 1C DEB", "OBJECT_ID": "1999-025ACD", "EPOCH": "2025-12-25T17:33:30.676320", "MEAN_MOTION": 14.33521453, "ECCENTRICITY": 0.00624533, "INCLINATION": 98.9242, "RA_OF_ASC_NODE": 277.6208, "ARG_OF_PERICENTER": 180.8003, "MEAN_ANOMALY": 209.401, "EPHEMERIS_TYPE": 0, "CLASSIFICATION_TYPE": "U", "NORAD_CAT_ID": 30366, "ELEMENT_SET_NO": 999, "REV_AT_EPOCH": 98509, "BSTAR": 0.00046377248, "MEAN_MOTION_DOT": 1.264e-05, "MEAN_MOTION_DDOT": 0}, "tle": {"line1": "1 30366U 99025ACD 25359.73160505  .00001264  00000+0  46377-3 0  9996", "line2": "2 30366  98.9242 277.6208 0062453 180.8003 209.4010 14.33521453985094"}}, "geometry": {"type": "Point", "coordinates": [112.51144690437236, 56.34135807959223]}}, {"type": "Feature", "properties": {"norad_id": 30368, "name": "FENGYUN 1C DEB", "group": "fengyun-1c-debris", "lat": -53.10202367182353, "lon": 118.80072296789874, "alt_km": 874.7382410548989, "timestamp": "2025-12-26T22:28:06.060245+00:00", "meta": {"OBJECT_NAME": "FENGYUN 1C DEB", "OBJECT_ID": "1999-025ACF", "EPOCH": "2025-12-26T14:03:30.831264", "MEAN_MOTION": 13.75380035, "ECCENTRICITY": 0.01864004, "INCLINATION": 99.1881, "RA_OF_ASC_NODE": 106.0134, "ARG_OF_PERICENTER": 271.3589, "MEAN_ANOMALY": 99.3063, "EPHEMERIS_TYPE": 0, "CLASSIFICATION_TYPE": "U", "NORAD_CAT_ID": 30368, "ELEMENT_SET_NO": 999, "REV_AT_EPOCH": 94852, "BSTAR": 0.00053904036, "MEAN_MOTION_DOT": 5.44e-06, "MEAN_MOTION_DDOT": 0}, "tle": {"line1": "1 30368U 99025ACF 25360.58577351  .00000544  00000+0  53904-3 0  9998", "line2": "2 30368  99.1881 106.0134 0186400 271.3589  99.3063 13.75380035948520"}}, "geometry": {"type": "Point", "coordinates": [118.80072296789874, -53.10202367182353]}}]}